{"type": "FeatureCollection", "features": [ {"type": "Feature", "properties": {"norad_id": 66826, "name": "STARLINK-35898", "group": "last-30-days", "lat": -35.1061413521003, "lon": 174.30846920501853, "alt_km": 369.41798397772436, "timestamp": "2025-12-16T03:53:25.817100+00:00", "meta": {"OBJECT_NAME": "STARLINK-35898", "OBJECT_ID": "2025-280F", "EPOCH": "2025-12-15T06:00:04.999968", "MEAN_MOTION": 15.71821854, "ECCENTRICITY": 0.00031506, "INCLINATION": 69.9971, "RA_OF_ASC_NODE": 191.7087, "ARG_OF_PERICENTER": 272.0567, "MEAN_ANOMALY": 297.6069, "EPHEMERIS_TYPE": 0, "CLASSIFICATION_TYPE": "U", "NORAD_CAT_ID": 66826, "ELEMENT_SET_NO": 999, "REV_AT_EPOCH": 330, "BSTAR": -0.01799097, "MEAN_MOTION_DOT": -0.02060744, "MEAN_MOTION_DDOT": 0}, "tle": {"line1": "1 66826U 25280F   25349.25005787 -.02060744  00000+0 -17991-1 0  9994", "line2": "2 66826  69.9971 191.7087 0003150 272.0567 297.6069 15.71821854  3309"}}, "geometry": {"type": "Point", "coordinates": [174.30846920501853, -35.1061413521003]}}, {"type": "Feature", "properties": {"norad_id": 66827, "name": "STARLINK-35959", "group": "last-30-days", "lat": -33.36108293076989, "lon": 175.26622233950988, "alt_km": 369.3693135188496, "timestamp": "2025-12-16T03:53:25.817110+00:00", "meta": {"OBJECT_NAME": "STARLINK-35959", "OBJECT_ID": "2025-280G", "EPOCH": "2025-12-15T06:00:04.999968", "MEAN_MOTION": 15.71820044, "ECCENTRICITY": 0.00031071, "INCLINATION": 69.9969, "RA_OF_ASC_NODE": 191.7064, "ARG_OF_PERICENTER": 272.3908, "MEAN_ANOMALY": 299.1905, "EPHEMERIS_TYPE": 0, "CLASSIFICATION_TYPE": "U", "NORAD_CAT_ID": 66827, "ELEMENT_SET_NO": 999, "REV_AT_EPOCH": 330, "BSTAR": -0.01797098, "MEAN_MOTION_DOT": -0.02058546, "MEAN_MOTION_DDOT": 0}, "tle": {"line1": "1 66827U 25280G   25349.25005787 -.02058546  00000+0 -17971-1 0  9990", "line2": "2 66827  69.9969 191.7064 0003107 272.3908 299.1905 15.71820044  3302"}}, "geometry": {"type": "Point", "coordinates": [175.26622233950988, -33.36108293076989]}}, {"type": "Feature", "properties": {"norad_id": 66828, "name": "STARLINK-35982", "group": "last-30-days", "lat": -29.87306655763435, "lon": 177.06138305652382, "alt_km": 369.379390456721, "timestamp": "2025-12-16T03:53:25.817127+00:00", "meta": {"OBJECT_NAME": "STARLINK-35982", "OBJECT_ID": "2025-280H", "EPOCH": "2025-12-15T06:00:04.999968", "MEAN_MOTION": 15.71825547, "ECCENTRICITY": 0.00031684, "INCLINATION": 69.9969, "RA_OF_ASC_NODE": 191.7021, "ARG_OF_PERICENTER": 269.579, "MEAN_ANOMALY": 305.8371, "EPHEMERIS_TYPE": 0, "CLASSIFICATION_TYPE": "U", "NORAD_CAT_ID": 66828, "ELEMENT_SET_NO": 999, "REV_AT_EPOCH": 330, "BSTAR": -0.018086524, "MEAN_MOTION_DOT": -0.02070662, "MEAN_MOTION_DDOT": 0}, "tle": {"line1": "1 66828U 25280H   25349.25005787 -.02070662  00000+0 -18087-1 0  9993", "line2": "2 66828  69.9969 191.7021 0003168 269.5790 305.8371 15.71825547  3305"}}, "geometry": {"type": "Point", "coordinates": [177.06138305652382, -29.87306655763435]}}, {"type": "Feature", "properties": {"norad_id": 66829, "name": "STARLINK-36084", "group": "last-30-days", "lat": -31.611743887521374, "lon": 176.1848517230009, "alt_km": 369.5185680457762, "timestamp": "2025-12-16T03:53:25.817138+00:00", "meta": {"OBJECT_NAME": "STARLINK-36084", "OBJECT_ID": "2025-280J", "EPOCH": "2025-12-15T06:00:04.999968", "MEAN_MOTION": 15.718299, "ECCENTRICITY": 0.00030735, "INCLINATION": 69.997, "RA_OF_ASC_NODE": 191.704, "ARG_OF_PERICENTER": 267.0288, "MEAN_ANOMALY": 306.4577, "EPHEMERIS_TYPE": 0, "CLASSIFICATION_TYPE": "U", "NORAD_CAT_ID": 66829, "ELEMENT_SET_NO": 999, "REV_AT_EPOCH": 314, "BSTAR": -0.018031213, "MEAN_MOTION_DOT": -0.02065333, "MEAN_MOTION_DDOT": 0}, "tle": {"line1": "1 66829U 25280J   25349.25005787 -.02065333  00000+0 -18031-1 0  9992", "line2": "2 66829  69.9970 191.7040 0003073 267.0288 306.4577 15.71829900  3143"}}, "geometry": {"type": "Point", "coordinates": [176.1848517230009, -31.611743887521374]}}, {"type": "Feature", "properties": {"norad_id": 66830, "name": "STARLINK-35881", "group": "last-30-days", "lat": -28.096672779516798, "lon": 177.92150713008382, "alt_km": 369.39661692570735, "timestamp": "2025-12-16T03:53:25.817148+00:00", "meta": {"OBJECT_NAME": "STARLINK-35881", "OBJECT_ID": "2025-280K", "EPOCH": "2025-12-15T06:00:04.999968", "MEAN_MOTION": 15.71820077, "ECCENTRICITY": 0.00030757, "INCLINATION": 69.9965, "RA_OF_ASC_NODE": 191.6989, "ARG_OF_PERICENTER": 267.0675, "MEAN_ANOMALY": 310.2651, "EPHEMERIS_TYPE": 0, "CLASSIFICATION_TYPE": "U", "NORAD_CAT_ID": 66830, "ELEMENT_SET_NO": 999, "REV_AT_EPOCH": 330, "BSTAR": -0.017995509, "MEAN_MOTION_DOT": -0.02060985, "MEAN_MOTION_DDOT": 0}, "tle": {"line1": "1 66830U 25280K   25349.25005787 -.02060985  00000+0 -17996-1 0  9991", "line2": "2 66830  69.9965 191.6989 0003075 267.0675 310.2651 15.71820077  3302"}}, "geometry": {"type": "Point", "coordinates": [177.92150713008382, -28.096672779516798]}}, {"type": "Feature", "properties": {"norad_id": 66831, "name": "STARLINK-35788", "group": "last-30-days", "lat": -26.342360824658304, "lon": 178.74377614487565, "alt_km": 369.2567249769145, "timestamp": "2025-12-16T03:53:25.817158+00:00", "meta": {"OBJECT_NAME": "STARLINK-35788", "OBJECT_ID": "2025-280L", "EPOCH": "2025-12-15T06:00:04.999968", "MEAN_MOTION": 15.7182553, "ECCENTRICITY": 0.00031353, "INCLINATION": 69.9973, "RA_OF_ASC_NODE": 191.6977, "ARG_OF_PERICENTER": 269.4408, "MEAN_ANOMALY": 309.8075, "EPHEMERIS_TYPE": 0, "CLASSIFICATION_TYPE": "U", "NORAD_CAT_ID": 66831, "ELEMENT_SET_NO": 999, "REV_AT_EPOCH": 330, "BSTAR": -0.018081486, "MEAN_MOTION_DOT": -0.02070118, "MEAN_MOTION_DDOT": 0}, "tle": {"line1": "1 66831U 25280L   25349.25005787 -.02070118  00000+0 -18081-1 0  9997", "line2": "2 66831  69.9973 191.6977 0003135 269.4408 309.8075 15.71825530  3309"}}, "geometry": {"type": "Point", "coordinates": [178.74377614487565, -26.342360824658304]}}, {"type": "Feature", "properties": {"norad_id": 66832, "name": "STARLINK-35768", "group": "last-30-days", "lat": -24.574975791771386, "lon": 179.5421997123089, "alt_km": 369.255114025942, "timestamp": "2025-12-16T03:53:25.817172+00:00", "meta": {"OBJECT_NAME": "STARLINK-35768", "OBJECT_ID": "2025-280M", "EPOCH": "2025-12-15T06:00:04.999968", "MEAN_MOTION": 15.71832591, "ECCENTRICITY": 0.00031225, "INCLINATION": 69.9968, "RA_OF_ASC_NODE": 191.6944, "ARG_OF_PERICENTER": 267.9716, "MEAN_ANOMALY": 313.187, "EPHEMERIS_TYPE": 0, "CLASSIFICATION_TYPE": "U", "NORAD_CAT_ID": 66832, "ELEMENT_SET_NO": 999, "REV_AT_EPOCH": 330, "BSTAR": -0.018140681, "MEAN_MOTION_DOT": -0.02076601, "MEAN_MOTION_DDOT": 0}, "tle": {"line1": "1 66832U 25280M   25349.25005787 -.02076601  00000+0 -18141-1 0  9998", "line2": "2 66832  69.9968 191.6944 0003122 267.9716 313.1870 15.71832591  3305"}}, "geometry": {"type": "Point", "coordinates": [179.5421997123089, -24.574975791771386]}}, {"type": "Feature", "properties": {"norad_id": 66833, "name": "STARLINK-35858", "group": "last-30-days", "lat": -22.791590337814043, "lon": -179.6744738476856, "alt_km": 369.17955539682134, "timestamp": "2025-12-16T03:53:25.817183+00:00", "meta": {"OBJECT_NAME": "STARLINK-35858", "OBJECT_ID": "2025-280N", "EPOCH": "2025-12-15T06:00:04.999968", "MEAN_MOTION": 15.7182989, "ECCENTRICITY": 0.00032738, "INCLINATION": 69.9969, "RA_OF_ASC_NODE": 191.6928, "ARG_OF_PERICENTER": 266.4587, "MEAN_ANOMALY": 316.6185, "EPHEMERIS_TYPE": 0, "CLASSIFICATION_TYPE": "U", "NORAD_CAT_ID": 66833, "ELEMENT_SET_NO": 999, "REV_AT_EPOCH": 330, "BSTAR": -0.018107553, "MEAN_MOTION_DOT": -0.02073227, "MEAN_MOTION_DDOT": 0}, "tle": {"line1": "1 66833U 25280N   25349.25005787 -.02073227  00000+0 -18108-1 0  9993", "line2": "2 66833  69.9969 191.6928 0003273 266.4587 316.6185 15.71829890  3301"}}, "geometry": {"type": "Point", "coordinates": [-179.6744738476856, -22.791590337814043]}}, {"type": "Feature", "properties": {"norad_id": 66834, "name": "STARLINK-35840", "group": "last-30-days", "lat": -21.001520739601382, "lon": -178.91195357711595, "alt_km": 369.1948772895821, "timestamp": "2025-12-16T03:53:25.817193+00:00", "meta": {"OBJECT_NAME": "STARLINK-35840", "OBJECT_ID": "2025-280P", "EPOCH": "2025-12-15T06:00:04.999968", "MEAN_MOTION": 15.71827857, "ECCENTRICITY": 0.00032253, "INCLINATION": 69.9964, "RA_OF_ASC_NODE": 191.6898, "ARG_OF_PERICENTER": 263.5742, "MEAN_ANOMALY": 321.4181, "EPHEMERIS_TYPE": 0, "CLASSIFICATION_TYPE": "U", "NORAD_CAT_ID": 66834, "ELEMENT_SET_NO": 999, "REV_AT_EPOCH": 330, "BSTAR": -0.01805684, "MEAN_MOTION_DOT": -0.02067918, "MEAN_MOTION_DDOT": 0}, "tle": {"line1": "1 66834U 25280P   25349.25005787 -.02067918  00000+0 -18057-1 0  9997", "line2": "2 66834  69.9964 191.6898 0003225 263.5742 321.4181 15.71827857  3302"}}, "geometry": {"type": "Point", "coordinates": [-178.91195357711595, -21.001520739601382]}}, {"type": "Feature", "properties": {"norad_id": 66835, "name": "STARLINK-35890", "group": "last-30-days", "lat": -19.218622026660892, "lon": -178.17107183586762, "alt_km": 369.05786944982356, "timestamp": "2025-12-16T03:53:25.817203+00:00", "meta": {"OBJECT_NAME": "STARLINK-35890", "OBJECT_ID": "2025-280Q", "EPOCH": "2025-12-15T06:00:04.999968", "MEAN_MOTION": 15.71823114, "ECCENTRICITY": 0.00031017, "INCLINATION": 69.9963, "RA_OF_ASC_NODE": 191.6874, "ARG_OF_PERICENTER": 264.976, "MEAN_ANOMALY": 321.9359, "EPHEMERIS_TYPE": 0, "CLASSIFICATION_TYPE": "U", "NORAD_CAT_ID": 66835, "ELEMENT_SET_NO": 999, "REV_AT_EPOCH": 330, "BSTAR": -0.018022589, "MEAN_MOTION_DOT": -0.02063973, "MEAN_MOTION_DDOT": 0}, "tle": {"line1": "1 66835U 25280Q   25349.25005787 -.02063973  00000+0 -18023-1 0  9998", "line2": "2 66835  69.9963 191.6874 0003101 264.9760 321.9359 15.71823114  3308"}}, "geometry": {"type": "Point", "coordinates": [-178.17107183586762, -19.218622026660892]}}]}